{"type": "FeatureCollection", "features": [ {"type": "Feature", "properties": {"norad_id": 66573, "name": "STARLINK-35650", "group": "last-30-days", "lat": 13.057701550810286, "lon": -25.632110118657934, "alt_km": 356.5304858632244, "timestamp": "2025-12-04T15:47:52.870046+00:00", "meta": {"OBJECT_NAME": "STARLINK-35650", "OBJECT_ID": "2025-268S", "EPOCH": "2025-12-04T08:00:01.999872", "MEAN_MOTION": 15.7162448, "ECCENTRICITY": 0.00017152, "INCLINATION": 42.9992, "RA_OF_ASC_NODE": 170.74, "ARG_OF_PERICENTER": 270.0146, "MEAN_ANOMALY": 210.9394, "EPHEMERIS_TYPE": 0, "CLASSIFICATION_TYPE": "U", "NORAD_CAT_ID": 66573, "ELEMENT_SET_NO": 999, "REV_AT_EPOCH": 331, "BSTAR": -0.016414866, "MEAN_MOTION_DOT": -0.01930129, "MEAN_MOTION_DDOT": 0}, "tle": {"line1": "1 66573U 25268S   25338.33335648 -.01930129  00000+0 -16415-1 0  9990", "line2": "2 66573  42.9992 170.7400 0001715 270.0146 210.9394 15.71624480  3310"}}, "geometry": {"type": "Point", "coordinates": [-25.632110118657934, 13.057701550810286]}}, {"type": "Feature", "properties": {"norad_id": 66574, "name": "STARLINK-35812", "group": "last-30-days", "lat": 11.783761008930002, "lon": -24.162041867369258, "alt_km": 356.69812124622786, "timestamp": "2025-12-04T15:47:52.870056+00:00", "meta": {"OBJECT_NAME": "STARLINK-35812", "OBJECT_ID": "2025-268T", "EPOCH": "2025-12-04T08:00:01.999872", "MEAN_MOTION": 15.71622611, "ECCENTRICITY": 0.00014572, "INCLINATION": 42.9993, "RA_OF_ASC_NODE": 170.7346, "ARG_OF_PERICENTER": 273.5212, "MEAN_ANOMALY": 209.3536, "EPHEMERIS_TYPE": 0, "CLASSIFICATION_TYPE": "U", "NORAD_CAT_ID": 66574, "ELEMENT_SET_NO": 999, "REV_AT_EPOCH": 331, "BSTAR": -0.016405629, "MEAN_MOTION_DOT": -0.01928826, "MEAN_MOTION_DDOT": 0}, "tle": {"line1": "1 66574U 25268T   25338.33335648 -.01928826  00000+0 -16406-1 0  9992", "line2": "2 66574  42.9993 170.7346 0001457 273.5212 209.3536 15.71622611  3310"}}, "geometry": {"type": "Point", "coordinates": [-24.162041867369258, 11.783761008930002]}}, {"type": "Feature", "properties": {"norad_id": 66575, "name": "STARLINK-35810", "group": "last-30-days", "lat": 10.506168357852173, "lon": -22.70921491898882, "alt_km": 356.8002145398459, "timestamp": "2025-12-04T15:47:52.870070+00:00", "meta": {"OBJECT_NAME": "STARLINK-35810", "OBJECT_ID": "2025-268U", "EPOCH": "2025-12-04T08:00:01.999872", "MEAN_MOTION": 15.71621845, "ECCENTRICITY": 0.00014734, "INCLINATION": 42.999, "RA_OF_ASC_NODE": 170.7302, "ARG_OF_PERICENTER": 270.9833, "MEAN_ANOMALY": 213.8089, "EPHEMERIS_TYPE": 0, "CLASSIFICATION_TYPE": "U", "NORAD_CAT_ID": 66575, "ELEMENT_SET_NO": 999, "REV_AT_EPOCH": 331, "BSTAR": -0.016393989, "MEAN_MOTION_DOT": -0.01927571, "MEAN_MOTION_DDOT": 0}, "tle": {"line1": "1 66575U 25268U   25338.33335648 -.01927571  00000+0 -16394-1 0  9995", "line2": "2 66575  42.9990 170.7302 0001473 270.9833 213.8089 15.71621845  3319"}}, "geometry": {"type": "Point", "coordinates": [-22.70921491898882, 10.506168357852173]}}, {"type": "Feature", "properties": {"norad_id": 66576, "name": "STARLINK-35814", "group": "last-30-days", "lat": 9.220585465086065, "lon": -21.26753457878039, "alt_km": 356.9951964005968, "timestamp": "2025-12-04T15:47:52.870100+00:00", "meta": {"OBJECT_NAME": "STARLINK-35814", "OBJECT_ID": "2025-268V", "EPOCH": "2025-12-04T08:00:01.999872", "MEAN_MOTION": 15.71622893, "ECCENTRICITY": 0.00013474, "INCLINATION": 42.9992, "RA_OF_ASC_NODE": 170.7249, "ARG_OF_PERICENTER": 274.2916, "MEAN_ANOMALY": 212.4171, "EPHEMERIS_TYPE": 0, "CLASSIFICATION_TYPE": "U", "NORAD_CAT_ID": 66576, "ELEMENT_SET_NO": 999, "REV_AT_EPOCH": 331, "BSTAR": -0.016406354, "MEAN_MOTION_DOT": -0.01928838, "MEAN_MOTION_DDOT": 0}, "tle": {"line1": "1 66576U 25268V   25338.33335648 -.01928838  00000+0 -16406-1 0  9997", "line2": "2 66576  42.9992 170.7249 0001347 274.2916 212.4171 15.71622893  3312"}}, "geometry": {"type": "Point", "coordinates": [-21.26753457878039, 9.220585465086065]}}, {"type": "Feature", "properties": {"norad_id": 66577, "name": "STARLINK-35815", "group": "last-30-days", "lat": 7.930126732252968, "lon": -19.836487735770824, "alt_km": 357.08002164791014, "timestamp": "2025-12-04T15:47:52.870115+00:00", "meta": {"OBJECT_NAME": "STARLINK-35815", "OBJECT_ID": "2025-268W", "EPOCH": "2025-12-04T08:00:01.999872", "MEAN_MOTION": 15.71623366, "ECCENTRICITY": 0.00012718, "INCLINATION": 42.999, "RA_OF_ASC_NODE": 170.7206, "ARG_OF_PERICENTER": 271.8118, "MEAN_ANOMALY": 216.8133, "EPHEMERIS_TYPE": 0, "CLASSIFICATION_TYPE": "U", "NORAD_CAT_ID": 66577, "ELEMENT_SET_NO": 999, "REV_AT_EPOCH": 331, "BSTAR": -0.016404928, "MEAN_MOTION_DOT": -0.01928667, "MEAN_MOTION_DDOT": 0}, "tle": {"line1": "1 66577U 25268W   25338.33335648 -.01928667  00000+0 -16405-1 0  9997", "line2": "2 66577  42.9990 170.7206 0001271 271.8118 216.8133 15.71623366  3319"}}, "geometry": {"type": "Point", "coordinates": [-19.836487735770824, 7.930126732252968]}}, {"type": "Feature", "properties": {"norad_id": 66578, "name": "STARLINK-35743", "group": "last-30-days", "lat": 6.635425782609881, "lon": -18.415631339915706, "alt_km": 357.23812850951253, "timestamp": "2025-12-04T15:47:52.870125+00:00", "meta": {"OBJECT_NAME": "STARLINK-35743", "OBJECT_ID": "2025-268X", "EPOCH": "2025-12-04T08:00:01.999872", "MEAN_MOTION": 15.71622983, "ECCENTRICITY": 0.00013086, "INCLINATION": 42.9991, "RA_OF_ASC_NODE": 170.7157, "ARG_OF_PERICENTER": 271.7511, "MEAN_ANOMALY": 218.7916, "EPHEMERIS_TYPE": 0, "CLASSIFICATION_TYPE": "U", "NORAD_CAT_ID": 66578, "ELEMENT_SET_NO": 999, "REV_AT_EPOCH": 331, "BSTAR": -0.016403556, "MEAN_MOTION_DOT": -0.01928524, "MEAN_MOTION_DDOT": 0}, "tle": {"line1": "1 66578U 25268X   25338.33335648 -.01928524  00000+0 -16404-1 0  9999", "line2": "2 66578  42.9991 170.7157 0001308 271.7511 218.7916 15.71622983  3317"}}, "geometry": {"type": "Point", "coordinates": [-18.415631339915706, 6.635425782609881]}}, {"type": "Feature", "properties": {"norad_id": 66579, "name": "STARLINK-35868", "group": "last-30-days", "lat": 5.338507478296561, "lon": -17.004291474424324, "alt_km": 357.3944977066185, "timestamp": "2025-12-04T15:47:52.870135+00:00", "meta": {"OBJECT_NAME": "STARLINK-35868", "OBJECT_ID": "2025-268Y", "EPOCH": "2025-12-04T08:00:01.999872", "MEAN_MOTION": 15.71622578, "ECCENTRICITY": 0.00015014, "INCLINATION": 42.9991, "RA_OF_ASC_NODE": 170.7108, "ARG_OF_PERICENTER": 270.8641, "MEAN_ANOMALY": 221.5952, "EPHEMERIS_TYPE": 0, "CLASSIFICATION_TYPE": "U", "NORAD_CAT_ID": 66579, "ELEMENT_SET_NO": 999, "REV_AT_EPOCH": 331, "BSTAR": -0.016398167, "MEAN_MOTION_DOT": -0.01928081, "MEAN_MOTION_DDOT": 0}, "tle": {"line1": "1 66579U 25268Y   25338.33335648 -.01928081  00000+0 -16398-1 0  9990", "line2": "2 66579  42.9991 170.7108 0001501 270.8641 221.5952 15.71622578  3315"}}, "geometry": {"type": "Point", "coordinates": [-17.004291474424324, 5.338507478296561]}}, {"type": "Feature", "properties": {"norad_id": 66580, "name": "STARLINK-35872", "group": "last-30-days", "lat": 4.034911878338735, "lon": -15.594708619478032, "alt_km": 357.52745402810797, "timestamp": "2025-12-04T15:47:52.870145+00:00", "meta": {"OBJECT_NAME": "STARLINK-35872", "OBJECT_ID": "2025-268Z", "EPOCH": "2025-12-04T08:00:01.999872", "MEAN_MOTION": 15.71612377, "ECCENTRICITY": 0.00014462, "INCLINATION": 42.999, "RA_OF_ASC_NODE": 170.7064, "ARG_OF_PERICENTER": 270.3886, "MEAN_ANOMALY": 223.9969, "EPHEMERIS_TYPE": 0, "CLASSIFICATION_TYPE": "U", "NORAD_CAT_ID": 66580, "ELEMENT_SET_NO": 999, "REV_AT_EPOCH": 331, "BSTAR": -0.016314686, "MEAN_MOTION_DOT": -0.01918594, "MEAN_MOTION_DDOT": 0}, "tle": {"line1": "1 66580U 25268Z   25338.33335648 -.01918594  00000+0 -16315-1 0  9999", "line2": "2 66580  42.9990 170.7064 0001446 270.3886 223.9969 15.71612377  3311"}}, "geometry": {"type": "Point", "coordinates": [-15.594708619478032, 4.034911878338735]}}, {"type": "Feature", "properties": {"norad_id": 66581, "name": "STARLINK-35744", "group": "last-30-days", "lat": 2.7317017601244027, "lon": -14.193818751442224, "alt_km": 357.66857182198873, "timestamp": "2025-12-04T15:47:52.870156+00:00", "meta": {"OBJECT_NAME": "STARLINK-35744", "OBJECT_ID": "2025-268AA", "EPOCH": "2025-12-04T08:00:01.999872", "MEAN_MOTION": 15.71622169, "ECCENTRICITY": 0.00014837, "INCLINATION": 42.999, "RA_OF_ASC_NODE": 170.7009, "ARG_OF_PERICENTER": 270.6477, "MEAN_ANOMALY": 225.6462, "EPHEMERIS_TYPE": 0, "CLASSIFICATION_TYPE": "U", "NORAD_CAT_ID": 66581, "ELEMENT_SET_NO": 999, "REV_AT_EPOCH": 326, "BSTAR": -0.0163957, "MEAN_MOTION_DOT": -0.01927781, "MEAN_MOTION_DDOT": 0}, "tle": {"line1": "1 66581U 25268AA  25338.33335648 -.01927781  00000+0 -16396-1 0  9997", "line2": "2 66581  42.9990 170.7009 0001483 270.6477 225.6462 15.71622169  3262"}}, "geometry": {"type": "Point", "coordinates": [-14.193818751442224, 2.7317017601244027]}}, {"type": "Feature", "properties": {"norad_id": 66582, "name": "STARLINK-35746", "group": "last-30-days", "lat": 1.425052202102624, "lon": -12.793331492681627, "alt_km": 357.8874348736035, "timestamp": "2025-12-04T15:47:52.870166+00:00", "meta": {"OBJECT_NAME": "STARLINK-35746", "OBJECT_ID": "2025-268AB", "EPOCH": "2025-12-04T08:00:01.999872", "MEAN_MOTION": 15.71623296, "ECCENTRICITY": 0.00014059, "INCLINATION": 42.999, "RA_OF_ASC_NODE": 170.6961, "ARG_OF_PERICENTER": 274.5943, "MEAN_ANOMALY": 223.6156, "EPHEMERIS_TYPE": 0, "CLASSIFICATION_TYPE": "U", "NORAD_CAT_ID": 66582, "ELEMENT_SET_NO": 999, "REV_AT_EPOCH": 331, "BSTAR": -0.016405704, "MEAN_MOTION_DOT": -0.01928845, "MEAN_MOTION_DDOT": 0}, "tle": {"line1": "1 66582U 25268AB  25338.33335648 -.01928845  00000+0 -16406-1 0  9992", "line2": "2 66582  42.9990 170.6961 0001405 274.5943 223.6156 15.71623296  3310"}}, "geometry": {"type": "Point", "coordinates": [-12.793331492681627, 1.425052202102624]}}]}